start=new Date('2022-09-06T00:00:00.000Z').valueOf();
sats=[{"EPHEMERIS_TYPE":"0","OBJECT_ID":"2020-038AC","REF_FRAME":"TEME","SEMIMAJOR_AXIS":"6925.304","OBJECT_NAME":"STARLINK-1484","TIME_SYSTEM":"UTC","LAUNCH_DATE":"2020-06-13","GP_ID":"211801036","CENTER_NAME":"EARTH","DECAY_DATE":null,"RA_OF_ASC_NODE":"209.5818","TLE_LINE1":"1 45756U 20038AC  22248.17016005  .00001884  00000-0  14528-3 0  9992","REV_AT_EPOCH":"12331","NORAD_CAT_ID":"45756","PERIOD":"95.591","MEAN_ANOMALY":"285.2467","MEAN_MOTION_DDOT":"0.0000000000000","MEAN_MOTION_DOT":"0.00001884","ECCENTRICITY":"0.00015850","APOAPSIS":"548.267","MEAN_MOTION":"15.06414424","MEAN_ELEMENT_THEORY":"SGP4","CLASSIFICATION_TYPE":"U","RCS_SIZE":"LARGE","COUNTRY_CODE":"US","INCLINATION":"53.0559","OBJECT_TYPE":"PAYLOAD","TLE_LINE2":"2 45756  53.0559 209.5818 0001585  74.8697 285.2467 15.06414424123314","BSTAR":"0.00014528000000","ARG_OF_PERICENTER":"74.8697","SITE":"AFETR","PERIAPSIS":"546.072","FILE":"3559490","EPOCH":"2022-09-05T04:05:01.828320","ELEMENT_SET_NO":"999"},{"CENTER_NAME":"EARTH","GP_ID":"211831819","LAUNCH_DATE":"2020-06-13","TIME_SYSTEM":"UTC","TLE_LINE1":"1 45757U 20038AD  22248.58761767  .00002574  00000-0  19155-3 0  9998","RA_OF_ASC_NODE":"207.7159","DECAY_DATE":null,"SEMIMAJOR_AXIS":"6925.303","OBJECT_ID":"2020-038AD","REF_FRAME":"TEME","EPHEMERIS_TYPE":"0","OBJECT_NAME":"STARLINK-1486","NORAD_CAT_ID":"45757","MEAN_ANOMALY":"297.6299","PERIOD":"95.591","REV_AT_EPOCH":"12337","OBJECT_TYPE":"PAYLOAD","INCLINATION":"53.0533","TLE_LINE2":"2 45757  53.0533 207.7159 0001556  62.4848 297.6299 15.06414778123372","BSTAR":"0.00019155000000","APOAPSIS":"548.246","ECCENTRICITY":"0.00015560","MEAN_MOTION":"15.06414778","MEAN_MOTION_DOT":"0.00002574","MEAN_MOTION_DDOT":"0.0000000000000","COUNTRY_CODE":"US","CLASSIFICATION_TYPE":"U","RCS_SIZE":"LARGE","MEAN_ELEMENT_THEORY":"SGP4","SITE":"AFETR","EPOCH":"2022-09-05T14:06:10.166688","ELEMENT_SET_NO":"999","PERIAPSIS":"546.091","FILE":"3559723","ARG_OF_PERICENTER":"62.4848"},{"NORAD_CAT_ID":"45758","MEAN_ANOMALY":"296.7026","PERIOD":"95.592","REV_AT_EPOCH":"12337","CENTER_NAME":"EARTH","GP_ID":"211832067","TIME_SYSTEM":"UTC","LAUNCH_DATE":"2020-06-13","TLE_LINE1":"1 45758U 20038AE  22248.58024421  .00001142  00000-0  95561-4 0  9994","RA_OF_ASC_NODE":"207.7426","DECAY_DATE":null,"SEMIMAJOR_AXIS":"6925.321","OBJECT_ID":"2020-038AE","REF_FRAME":"TEME","EPHEMERIS_TYPE":"0","OBJECT_NAME":"STARLINK-1487","SITE":"AFETR","ELEMENT_SET_NO":"999","EPOCH":"2022-09-05T13:55:33.099744","FILE":"3559723","PERIAPSIS":"546.014","ARG_OF_PERICENTER":"63.4136","OBJECT_TYPE":"PAYLOAD","INCLINATION":"53.0530","BSTAR":"0.00009556100000","TLE_LINE2":"2 45758  53.0530 207.7426 0001693  63.4136 296.7026 15.06408972123377","APOAPSIS":"548.359","MEAN_MOTION":"15.06408972","ECCENTRICITY":"0.00016930","MEAN_MOTION_DOT":"0.00001142","MEAN_MOTION_DDOT":"0.0000000000000","COUNTRY_CODE":"US","CLASSIFICATION_TYPE":"U","RCS_SIZE":"LARGE","MEAN_ELEMENT_THEORY":"SGP4"},{"NORAD_CAT_ID":"45759","PERIOD":"95.591","MEAN_ANOMALY":"308.6387","REV_AT_EPOCH":"12333","TIME_SYSTEM":"UTC","LAUNCH_DATE":"2020-06-13","CENTER_NAME":"EARTH","GP_ID":"211799786","DECAY_DATE":null,"TLE_LINE1":"1 45759U 20038AF  22248.29643204  .00002088  00000-0  15895-3 0  9990","RA_OF_ASC_NODE":"209.0278","REF_FRAME":"TEME","OBJECT_ID":"2020-038AF","EPHEMERIS_TYPE":"0","SEMIMAJOR_AXIS":"6925.308","OBJECT_NAME":"STARLINK-1493","SITE":"AFETR","PERIAPSIS":"545.882","FILE":"3559490","ELEMENT_SET_NO":"999","EPOCH":"2022-09-05T07:06:51.728256","ARG_OF_PERICENTER":"51.4769","OBJECT_TYPE":"PAYLOAD","INCLINATION":"53.0533","TLE_LINE2":"2 45759  53.0533 209.0278 0001865  51.4769 308.6387 15.06413145123338","BSTAR":"0.00015895000000","MEAN_MOTION_DOT":"0.00002088","MEAN_MOTION_DDOT":"0.0000000000000","MEAN_MOTION":"15.06413145","APOAPSIS":"548.465","ECCENTRICITY":"0.00018650","CLASSIFICATION_TYPE":"U","RCS_SIZE":"LARGE","MEAN_ELEMENT_THEORY":"SGP4","COUNTRY_CODE":"US"},{"REV_AT_EPOCH":"12334","NORAD_CAT_ID":"45760","MEAN_ANOMALY":"280.4564","PERIOD":"95.592","SEMIMAJOR_AXIS":"6925.333","EPHEMERIS_TYPE":"0","OBJECT_ID":"2020-038AG","REF_FRAME":"TEME","OBJECT_NAME":"STARLINK-1494","GP_ID":"211800538","CENTER_NAME":"EARTH","TIME_SYSTEM":"UTC","LAUNCH_DATE":"2020-06-13","RA_OF_ASC_NODE":"208.9993","TLE_LINE1":"1 45760U 20038AG  22248.30011285  .00001796  00000-0  13941-3 0  9997","DECAY_DATE":null,"ARG_OF_PERICENTER":"79.6592","SITE":"AFETR","EPOCH":"2022-09-05T07:12:09.750240","ELEMENT_SET_NO":"999","FILE":"3559490","PERIAPSIS":"546.169","APOAPSIS":"548.227","MEAN_MOTION":"15.06404967","ECCENTRICITY":"0.00014860","MEAN_MOTION_DDOT":"0.0000000000000","MEAN_MOTION_DOT":"0.00001796","COUNTRY_CODE":"US","MEAN_ELEMENT_THEORY":"SGP4","RCS_SIZE":"LARGE","CLASSIFICATION_TYPE":"U","INCLINATION":"53.0530","OBJECT_TYPE":"PAYLOAD","BSTAR":"0.00013941000000","TLE_LINE2":"2 45760  53.0530 208.9993 0001486  79.6592 280.4564 15.06404967123341"},{"SEMIMAJOR_AXIS":"6717.795","REF_FRAME":"TEME","OBJECT_ID":"2020-038AH","EPHEMERIS_TYPE":"0","OBJECT_NAME":"STARLINK-1495","CENTER_NAME":"EARTH","GP_ID":"211831321","LAUNCH_DATE":"2020-06-13","TIME_SYSTEM":"UTC","TLE_LINE1":"1 45761U 20038AH  22248.70616615 -.00005564  00000-0 -29827-4 0  9990","RA_OF_ASC_NODE":"50.8162","DECAY_DATE":null,"REV_AT_EPOCH":"12560","NORAD_CAT_ID":"45761","MEAN_ANOMALY":"82.3553","PERIOD":"91.327","ECCENTRICITY":"0.00084480","APOAPSIS":"345.335","MEAN_MOTION":"15.76749231","MEAN_MOTION_DOT":"-0.00005564","MEAN_MOTION_DDOT":"0.0000000000000","COUNTRY_CODE":"US","RCS_SIZE":"LARGE","CLASSIFICATION_TYPE":"U","MEAN_ELEMENT_THEORY":"SGP4","OBJECT_TYPE":"PAYLOAD","INCLINATION":"53.0421","BSTAR":"-0.00002982700000","TLE_LINE2":"2 45761  53.0421  50.8162 0008448 277.6506  82.3553 15.76749231125604","ARG_OF_PERICENTER":"277.6506","SITE":"AFETR","EPOCH":"2022-09-05T16:56:52.755360","ELEMENT_SET_NO":"999","PERIAPSIS":"333.985","FILE":"3559723"},{"OBJECT_NAME":"STARLINK-1499","SEMIMAJOR_AXIS":"6917.327","OBJECT_ID":"2020-038AJ","REF_FRAME":"TEME","EPHEMERIS_TYPE":"0","TLE_LINE1":"1 45762U 20038AJ  22248.58255689  .00015381  00000-0  97748-3 0  9999","RA_OF_ASC_NODE":"206.1496","DECAY_DATE":null,"CENTER_NAME":"EARTH","GP_ID":"211831568","TIME_SYSTEM":"UTC","LAUNCH_DATE":"2020-06-13","REV_AT_EPOCH":"12341","MEAN_ANOMALY":"280.1710","PERIOD":"95.426","NORAD_CAT_ID":"45762","COUNTRY_CODE":"US","RCS_SIZE":"LARGE","CLASSIFICATION_TYPE":"U","MEAN_ELEMENT_THEORY":"SGP4","APOAPSIS":"540.007","ECCENTRICITY":"0.00011780","MEAN_MOTION":"15.09021093","MEAN_MOTION_DOT":"0.00015381","MEAN_MOTION_DDOT":"0.0000000000000","TLE_LINE2":"2 45762  53.0535 206.1496 0001178  79.9413 280.1710 15.09021093123415","BSTAR":"0.00097748000000","OBJECT_TYPE":"PAYLOAD","INCLINATION":"53.0535","ARG_OF_PERICENTER":"79.9413","ELEMENT_SET_NO":"999","EPOCH":"2022-09-05T13:58:52.915296","PERIAPSIS":"538.377","FILE":"3559723","SITE":"AFETR"},{"PERIAPSIS":"546.095","FILE":"3559723","ELEMENT_SET_NO":"999","EPOCH":"2022-09-05T14:16:49.213056","SITE":"AFETR","ARG_OF_PERICENTER":"69.4738","BSTAR":"0.00050554000000","TLE_LINE2":"2 45764  53.0536 207.6835 0001566  69.4738 290.6419 15.06411013123397","OBJECT_TYPE":"PAYLOAD","INCLINATION":"53.0536","RCS_SIZE":"LARGE","CLASSIFICATION_TYPE":"U","MEAN_ELEMENT_THEORY":"SGP4","COUNTRY_CODE":"US","MEAN_MOTION_DOT":"0.00007259","MEAN_MOTION_DDOT":"0.0000000000000","APOAPSIS":"548.264","ECCENTRICITY":"0.00015660","MEAN_MOTION":"15.06411013","PERIOD":"95.591","MEAN_ANOMALY":"290.6419","NORAD_CAT_ID":"45764","REV_AT_EPOCH":"12339","DECAY_DATE":null,"TLE_LINE1":"1 45764U 20038AL  22248.59501404  .00007259  00000-0  50554-3 0  9990","RA_OF_ASC_NODE":"207.6835","LAUNCH_DATE":"2020-06-13","TIME_SYSTEM":"UTC","CENTER_NAME":"EARTH","GP_ID":"211830819","OBJECT_NAME":"STARLINK-1502","OBJECT_ID":"2020-038AL","REF_FRAME":"TEME","EPHEMERIS_TYPE":"0","SEMIMAJOR_AXIS":"6925.315"},{"REV_AT_EPOCH":"12337","NORAD_CAT_ID":"45766","PERIOD":"95.592","MEAN_ANOMALY":"291.9298","REF_FRAME":"TEME","OBJECT_ID":"2020-038AN","EPHEMERIS_TYPE":"0","SEMIMAJOR_AXIS":"6925.356","OBJECT_NAME":"STARLINK-1509","TIME_SYSTEM":"UTC","LAUNCH_DATE":"2020-06-13","CENTER_NAME":"EARTH","GP_ID":"211830571","DECAY_DATE":null,"TLE_LINE1":"1 45766U 20038AN  22248.58393981  .00000288  00000-0  38265-4 0  9991","RA_OF_ASC_NODE":"207.7198","ARG_OF_PERICENTER":"68.1873","SITE":"AFETR","PERIAPSIS":"546.034","FILE":"3559723","EPOCH":"2022-09-05T14:00:52.399584","ELEMENT_SET_NO":"999","MEAN_MOTION_DOT":"0.00000288","MEAN_MOTION_DDOT":"0.0000000000000","APOAPSIS":"548.408","ECCENTRICITY":"0.00017140","MEAN_MOTION":"15.06397541","CLASSIFICATION_TYPE":"U","RCS_SIZE":"LARGE","MEAN_ELEMENT_THEORY":"SGP4","COUNTRY_CODE":"US","OBJECT_TYPE":"PAYLOAD","INCLINATION":"53.0534","BSTAR":"0.00003826500000","TLE_LINE2":"2 45766  53.0534 207.7198 0001714  68.1873 291.9298 15.06397541123377"},{"OBJECT_NAME":"STARLINK-1511","SEMIMAJOR_AXIS":"6925.368","EPHEMERIS_TYPE":"0","REF_FRAME":"TEME","OBJECT_ID":"2020-038AP","RA_OF_ASC_NODE":"208.9591","TLE_LINE1":"1 45767U 20038AP  22248.31118794 -.00001147  00000-0 -58099-4 0  9994","DECAY_DATE":null,"GP_ID":"211801279","CENTER_NAME":"EARTH","LAUNCH_DATE":"2020-06-13","TIME_SYSTEM":"UTC","REV_AT_EPOCH":"12333","MEAN_ANOMALY":"286.7559","PERIOD":"95.593","NORAD_CAT_ID":"45767","COUNTRY_CODE":"US","MEAN_ELEMENT_THEORY":"SGP4","RCS_SIZE":"LARGE","CLASSIFICATION_TYPE":"U","MEAN_MOTION":"15.06393778","APOAPSIS":"548.379","ECCENTRICITY":"0.00016560","MEAN_MOTION_DDOT":"0.0000000000000","MEAN_MOTION_DOT":"-0.00001147","BSTAR":"-0.00005809900000","TLE_LINE2":"2 45767  53.0536 208.9591 0001656  73.3611 286.7559 15.06393778123339","INCLINATION":"53.0536","OBJECT_TYPE":"PAYLOAD","ARG_OF_PERICENTER":"73.3611","ELEMENT_SET_NO":"999","EPOCH":"2022-09-05T07:28:06.638016","FILE":"3559490","PERIAPSIS":"546.086","SITE":"AFETR"}];
